[
  {
    "OBJECT_NAME": "STARLINK-5444",
    "OBJECT_ID": "22175L",
    "EPOCH": "2025-11-10T23:38:20.540544",
    "MEAN_MOTION": 15.08847345,
    "ECCENTRICITY": 0.0001328,
    "INCLINATION": 53.216,
    "RA_OF_ASC_NODE": 202.3915,
    "ARG_OF_PERICENTER": 83.3807,
    "MEAN_ANOMALY": 276.7336,
    "EPHEMERIS_TYPE": 0,
    "CLASSIFICATION_TYPE": "U",
    "NORAD_CAT_ID": 54768,
    "ELEMENT_SET_NO": 999,
    "REV_AT_EPOCH": 16220,
    "BSTAR": 0.00022675,
    "MEAN_MOTION_DOT": 3.323e-05,
    "MEAN_MOTION_DDOT": 0.0,
    "TLE_LINE1": "1 54768U 22175L   25314.98495996  .00003323  00000+0  22675-3 0  9996",
    "TLE_LINE2": "2 54768  53.2160 202.3915 0001328  83.3807 276.7336 15.08847345162204",
    "COMMENT": "Grouped by shell and plane from TLE"
  },
  {
    "OBJECT_NAME": "STARLINK-5448",
    "OBJECT_ID": "22175N",
    "EPOCH": "2025-11-11T02:21:12.632832",
    "MEAN_MOTION": 15.08859905,
    "ECCENTRICITY": 0.0001196,
    "INCLINATION": 53.2144,
    "RA_OF_ASC_NODE": 201.6809,
    "ARG_OF_PERICENTER": 93.0294,
    "MEAN_ANOMALY": 267.0835,
    "EPHEMERIS_TYPE": 0,
    "CLASSIFICATION_TYPE": "U",
    "NORAD_CAT_ID": 54770,
    "ELEMENT_SET_NO": 999,
    "REV_AT_EPOCH": 16222,
    "BSTAR": 0.00032461,
    "MEAN_MOTION_DOT": 4.885e-05,
    "MEAN_MOTION_DDOT": 0.0,
    "TLE_LINE1": "1 54770U 22175N   25315.09806288  .00004885  00000+0  32461-3 0  9990",
    "TLE_LINE2": "2 54770  53.2144 201.6809 0001196  93.0294 267.0835 15.08859905162228",
    "COMMENT": "Grouped by shell and plane from TLE"
  },
  {
    "OBJECT_NAME": "STARLINK-5452",
    "OBJECT_ID": "22175Q",
    "EPOCH": "2025-11-11T02:15:54.374112",
    "MEAN_MOTION": 15.08836111,
    "ECCENTRICITY": 0.0001466,
    "INCLINATION": 53.2167,
    "RA_OF_ASC_NODE": 201.6574,
    "ARG_OF_PERICENTER": 94.0535,
    "MEAN_ANOMALY": 266.0625,
    "EPHEMERIS_TYPE": 0,
    "CLASSIFICATION_TYPE": "U",
    "NORAD_CAT_ID": 54772,
    "ELEMENT_SET_NO": 999,
    "REV_AT_EPOCH": 16222,
    "BSTAR": 0.00020684,
    "MEAN_MOTION_DOT": 3.005e-05,
    "MEAN_MOTION_DDOT": 0.0,
    "TLE_LINE1": "1 54772U 22175Q   25315.09437933  .00003005  00000+0  20684-3 0  9996",
    "TLE_LINE2": "2 54772  53.2167 201.6574 0001466  94.0535 266.0625 15.08836111162223",
    "COMMENT": "Grouped by shell and plane from TLE"
  },
  {
    "OBJECT_NAME": "STARLINK-5454",
    "OBJECT_ID": "22175S",
    "EPOCH": "2025-11-10T17:15:17.976384",
    "MEAN_MOTION": 15.08841975,
    "ECCENTRICITY": 0.0001213,
    "INCLINATION": 53.2158,
    "RA_OF_ASC_NODE": 202.8789,
    "ARG_OF_PERICENTER": 81.4382,
    "MEAN_ANOMALY": 278.6748,
    "EPHEMERIS_TYPE": 0,
    "CLASSIFICATION_TYPE": "U",
    "NORAD_CAT_ID": 54774,
    "ELEMENT_SET_NO": 999,
    "REV_AT_EPOCH": 16217,
    "BSTAR": 4.049e-05,
    "MEAN_MOTION_DOT": 3.57e-06,
    "MEAN_MOTION_DDOT": 0.0,
    "TLE_LINE1": "1 54774U 22175S   25314.71895806  .00000357  00000+0  40490-4 0  9998",
    "TLE_LINE2": "2 54774  53.2158 202.8789 0001213  81.4382 278.6748 15.08841975162179",
    "COMMENT": "Grouped by shell and plane from TLE"
  },
  {
    "OBJECT_NAME": "STARLINK-5450",
    "OBJECT_ID": "22175W",
    "EPOCH": "2025-11-11T02:05:16.183968",
    "MEAN_MOTION": 15.08871964,
    "ECCENTRICITY": 0.0001052,
    "INCLINATION": 53.2158,
    "RA_OF_ASC_NODE": 201.6144,
    "ARG_OF_PERICENTER": 77.9242,
    "MEAN_ANOMALY": 282.1868,
    "EPHEMERIS_TYPE": 0,
    "CLASSIFICATION_TYPE": "U",
    "NORAD_CAT_ID": 54778,
    "ELEMENT_SET_NO": 999,
    "REV_AT_EPOCH": 16222,
    "BSTAR": 0.0,
    "MEAN_MOTION_DOT": -8.469e-05,
    "MEAN_MOTION_DDOT": 0.0,
    "TLE_LINE1": "1 54778U 22175W   25315.08699287 -.00008469  00000+0 -51418-3 0  9993",
    "TLE_LINE2": "2 54778  53.2158 201.6144 0001052  77.9242 282.1868 15.08871964162221",
    "COMMENT": "Grouped by shell and plane from TLE"
  },
  {
    "OBJECT_NAME": "STARLINK-5447",
    "OBJECT_ID": "22175X",
    "EPOCH": "2025-11-11T02:10:34.583520",
    "MEAN_MOTION": 15.08845482,
    "ECCENTRICITY": 0.0001191,
    "INCLINATION": 53.218,
    "RA_OF_ASC_NODE": 201.6351,
    "ARG_OF_PERICENTER": 87.2562,
    "MEAN_ANOMALY": 272.8567,
    "EPHEMERIS_TYPE": 0,
    "CLASSIFICATION_TYPE": "U",
    "NORAD_CAT_ID": 54779,
    "ELEMENT_SET_NO": 999,
    "REV_AT_EPOCH": 16222,
    "BSTAR": 0.00018468000000000003,
    "MEAN_MOTION_DOT": 2.653e-05,
    "MEAN_MOTION_DDOT": 0.0,
    "TLE_LINE1": "1 54779U 22175X   25315.09067805  .00002653  00000+0  18468-3 0  9995",
    "TLE_LINE2": "2 54779  53.2180 201.6351 0001191  87.2562 272.8567 15.08845482162228",
    "COMMENT": "Grouped by shell and plane from TLE"
  },
  {
    "OBJECT_NAME": "STARLINK-5449",
    "OBJECT_ID": "22175Y",
    "EPOCH": "2025-11-11T01:44:04.448544",
    "MEAN_MOTION": 15.08827743,
    "ECCENTRICITY": 0.0001362,
    "INCLINATION": 53.2164,
    "RA_OF_ASC_NODE": 201.5203,
    "ARG_OF_PERICENTER": 84.2119,
    "MEAN_ANOMALY": 275.9029,
    "EPHEMERIS_TYPE": 0,
    "CLASSIFICATION_TYPE": "U",
    "NORAD_CAT_ID": 54780,
    "ELEMENT_SET_NO": 999,
    "REV_AT_EPOCH": 16222,
    "BSTAR": 0.00031175,
    "MEAN_MOTION_DOT": 4.675e-05,
    "MEAN_MOTION_DDOT": 0.0,
    "TLE_LINE1": "1 54780U 22175Y   25315.07227371  .00004675  00000+0  31175-3 0  9997",
    "TLE_LINE2": "2 54780  53.2164 201.5203 0001362  84.2119 275.9029 15.08827743162229",
    "COMMENT": "Grouped by shell and plane from TLE"
  },
  {
    "OBJECT_NAME": "STARLINK-5443",
    "OBJECT_ID": "22175Z",
    "EPOCH": "2025-11-11T01:59:58.015968",
    "MEAN_MOTION": 15.08855249,
    "ECCENTRICITY": 0.0001492,
    "INCLINATION": 53.2168,
    "RA_OF_ASC_NODE": 201.5835,
    "ARG_OF_PERICENTER": 86.4089,
    "MEAN_ANOMALY": 273.7074,
    "EPHEMERIS_TYPE": 0,
    "CLASSIFICATION_TYPE": "U",
    "NORAD_CAT_ID": 54781,
    "ELEMENT_SET_NO": 999,
    "REV_AT_EPOCH": 16222,
    "BSTAR": 0.00018628,
    "MEAN_MOTION_DOT": 2.679e-05,
    "MEAN_MOTION_DDOT": 0.0,
    "TLE_LINE1": "1 54781U 22175Z   25315.08331037  .00002679  00000+0  18628-3 0  9994",
    "TLE_LINE2": "2 54781  53.2168 201.5835 0001492  86.4089 273.7074 15.08855249162227",
    "COMMENT": "Grouped by shell and plane from TLE"
  },
  {
    "OBJECT_NAME": "STARLINK-5439",
    "OBJECT_ID": "22175AB",
    "EPOCH": "2025-11-11T01:54:41.330592",
    "MEAN_MOTION": 15.08841778,
    "ECCENTRICITY": 0.0001233,
    "INCLINATION": 53.2175,
    "RA_OF_ASC_NODE": 201.5659,
    "ARG_OF_PERICENTER": 88.8258,
    "MEAN_ANOMALY": 271.2875,
    "EPHEMERIS_TYPE": 0,
    "CLASSIFICATION_TYPE": "U",
    "NORAD_CAT_ID": 54783,
    "ELEMENT_SET_NO": 999,
    "REV_AT_EPOCH": 16222,
    "BSTAR": 7.794900000000001e-05,
    "MEAN_MOTION_DOT": 9.53e-06,
    "MEAN_MOTION_DDOT": 0.0,
    "TLE_LINE1": "1 54783U 22175AB  25315.07964503  .00000953  00000+0  77949-4 0  9990",
    "TLE_LINE2": "2 54783  53.2175 201.5659 0001233  88.8258 271.2875 15.08841778162222",
    "COMMENT": "Grouped by shell and plane from TLE"
  },
  {
    "OBJECT_NAME": "STARLINK-5399",
    "OBJECT_ID": "22175AG",
    "EPOCH": "2025-11-11T03:14:09.101184",
    "MEAN_MOTION": 15.0883925,
    "ECCENTRICITY": 0.0001769,
    "INCLINATION": 53.2171,
    "RA_OF_ASC_NODE": 201.1998,
    "ARG_OF_PERICENTER": 86.1648,
    "MEAN_ANOMALY": 273.9546,
    "EPHEMERIS_TYPE": 0,
    "CLASSIFICATION_TYPE": "U",
    "NORAD_CAT_ID": 54788,
    "ELEMENT_SET_NO": 999,
    "REV_AT_EPOCH": 16223,
    "BSTAR": 4.9782e-05,
    "MEAN_MOTION_DOT": 5.04e-06,
    "MEAN_MOTION_DDOT": 0.0,
    "TLE_LINE1": "1 54788U 22175AG  25315.13482756  .00000504  00000+0  49782-4 0  9993",
    "TLE_LINE2": "2 54788  53.2171 201.1998 0001769  86.1648 273.9546 15.08839250162230",
    "COMMENT": "Grouped by shell and plane from TLE"
  },
  {
    "OBJECT_NAME": "STARLINK-5445",
    "OBJECT_ID": "22175AJ",
    "EPOCH": "2025-11-11T01:28:08.746176",
    "MEAN_MOTION": 15.08841232,
    "ECCENTRICITY": 0.0001667,
    "INCLINATION": 53.2168,
    "RA_OF_ASC_NODE": 201.4568,
    "ARG_OF_PERICENTER": 91.9759,
    "MEAN_ANOMALY": 268.1424,
    "EPHEMERIS_TYPE": 0,
    "CLASSIFICATION_TYPE": "U",
    "NORAD_CAT_ID": 54790,
    "ELEMENT_SET_NO": 999,
    "REV_AT_EPOCH": 16222,
    "BSTAR": 9.6432e-05,
    "MEAN_MOTION_DOT": 1.247e-05,
    "MEAN_MOTION_DDOT": 0.0,
    "TLE_LINE1": "1 54790U 22175AJ  25315.06121234  .00001247  00000+0  96432-4 0  9998",
    "TLE_LINE2": "2 54790  53.2168 201.4568 0001667  91.9759 268.1424 15.08841232162222",
    "COMMENT": "Grouped by shell and plane from TLE"
  },
  {
    "OBJECT_NAME": "STARLINK-5425",
    "OBJECT_ID": "22175AK",
    "EPOCH": "2025-11-11T01:49:22.496448",
    "MEAN_MOTION": 15.0884194,
    "ECCENTRICITY": 0.0001426,
    "INCLINATION": 53.2165,
    "RA_OF_ASC_NODE": 201.5442,
    "ARG_OF_PERICENTER": 85.5862,
    "MEAN_ANOMALY": 274.5293,
    "EPHEMERIS_TYPE": 0,
    "CLASSIFICATION_TYPE": "U",
    "NORAD_CAT_ID": 54791,
    "ELEMENT_SET_NO": 999,
    "REV_AT_EPOCH": 16222,
    "BSTAR": 0.0003303,
    "MEAN_MOTION_DOT": 4.973e-05,
    "MEAN_MOTION_DDOT": 0.0,
    "TLE_LINE1": "1 54791U 22175AK  25315.07595482  .00004973  00000+0  33030-3 0  9993",
    "TLE_LINE2": "2 54791  53.2165 201.5442 0001426  85.5862 274.5293 15.08841940162220",
    "COMMENT": "Grouped by shell and plane from TLE"
  },
  {
    "OBJECT_NAME": "STARLINK-5436",
    "OBJECT_ID": "22175AP",
    "EPOCH": "2025-11-10T23:58:04.084896",
    "MEAN_MOTION": 15.08839897,
    "ECCENTRICITY": 0.0001387,
    "INCLINATION": 53.2183,
    "RA_OF_ASC_NODE": 201.7749,
    "ARG_OF_PERICENTER": 88.6999,
    "MEAN_ANOMALY": 271.4152,
    "EPHEMERIS_TYPE": 0,
    "CLASSIFICATION_TYPE": "U",
    "NORAD_CAT_ID": 54795,
    "ELEMENT_SET_NO": 999,
    "REV_AT_EPOCH": 16221,
    "BSTAR": 0.00013083,
    "MEAN_MOTION_DOT": 1.795e-05,
    "MEAN_MOTION_DDOT": 0.0,
    "TLE_LINE1": "1 54795U 22175AP  25314.99865839  .00001795  00000+0  13083-3 0  9998",
    "TLE_LINE2": "2 54795  53.2183 201.7749 0001387  88.6999 271.4152 15.08839897162214",
    "COMMENT": "Grouped by shell and plane from TLE"
  }
]